ASTRA 1KR               
1 29055U 06012A   26094.19419966  .00000118  00000+0  00000+0 0  9994
2 29055   0.2831  82.1372 0003597 288.3113 270.9694  1.00270424 44959
GALAXY 16 (G-16)        
1 29236U 06023A   26094.18516841 -.00000128  00000+0  00000+0 0  9998
2 29236   0.0179 209.7815 0002835 170.4988 139.8740  1.00272619 72232
EUTELSAT 33F            
1 29270U 06032A   26094.18864199  .00000156  00000+0  00000+0 0  9998
2 29270   1.4706  83.0468 0003582 291.9865 278.4700  1.00270806 46560
JCSAT-3A                
1 29272U 06033A   26094.25600255  .00000000  00000+0  00000+0 0  9998
2 29272   0.0156 220.8543 0002773 183.1766   8.7062  1.00268972 46997
KOREASAT 5 (MUGUNGWHA 5)
1 29349U 06034A   26093.98475238 -.00000358  00000+0  00000+0 0  9991
2 29349   1.5935  83.8912 0001707 318.4261 257.5611  1.00272739 40577
ZHONGXING-22A           
1 29398U 06038A   26094.50514413  .00000100  00000+0  00000+0 0  9991
2 29398  11.3623  37.9619 0000607 338.3372 219.2459  1.00078653 71646
DIRECTV 9S              
1 29494U 06043A   26094.27384983 -.00000113  00000+0  00000+0 0  9990
2 29494   2.2303  81.7758 0003812 309.1608 159.0438  1.00272053 50642
OPTUS D1                
1 29495U 06043B   26094.22407358 -.00000183  00000+0  00000+0 0  9995
2 29495   2.8446  80.5477 0004042 298.5467  46.0959  1.00271554 71373
BADR-4                  
1 29526U 06051A   26094.19419966  .00000145  00000+0  00000+0 0  9990
2 29526   1.8143  81.8980 0006991 285.4348 281.3283  1.00273679 50520
WILDBLUE-1              
1 29643U 06054A   26094.22551333 -.00000048  00000+0  00000+0 0  9995
2 29643   2.6126  81.3989 0001708 293.0222 148.1121  1.00272097 53056
MEASAT-3                
1 29648U 06056A   26094.24087556 -.00000335  00000+0  00000+0 0  9994
2 29648   4.5394  77.0547 0004911 240.7934  85.1445  0.99748819 49645
SKYNET 5A               
1 30794U 07007B   26093.98119904 -.00000270  00000+0  00000+0 0  9996
2 30794   5.1128  74.6254 0003970 309.7461 256.3864  1.00271516 69955
ANIK F3                 
1 31102U 07009A   26093.63591947 -.00000003  00000+0  00000+0 0  9999
2 31102   1.0050  84.7089 0002888 297.9476 279.5351  1.00273651 45816
ASTRA 1L                
1 31306U 07016A   26094.21642233 -.00000184  00000+0  00000+0 0  9993
2 31306   1.1308  82.0893 0004366 310.2435 213.5892  1.00272871 44247
GALAXY 17 (G-17)        
1 31307U 07016B   26094.23071336 -.00000205  00000+0  00000+0 0  9990
2 31307   2.7853  80.8115 0004055 307.0162 162.7732  1.00271754 69063
NIGCOMSAT 1             
1 31395U 07018A   26093.76808905 -.00000300  00000+0  00000+0 0  9992
2 31395  11.7460  33.4510 0002293 104.1729  70.1335  1.00223173 69315
WGS F1 (USA 195)        
1 32258U 07046A   26094.22753240 -.00000268  00000+0  00000+0 0  9998
2 32258   0.0756  83.0235 0000415 293.1170 215.8177  1.00271708 51591
