[{"OBJECT_NAME":"ASTRA 1KR","OBJECT_ID":"2006-012A","EPOCH":"2026-04-04T04:39:38.850624","MEAN_MOTION":1.00270424,"ECCENTRICITY":0.00035973,"INCLINATION":0.2831,"RA_OF_ASC_NODE":82.1372,"ARG_OF_PERICENTER":288.3113,"MEAN_ANOMALY":270.9694,"EPHEMERIS_TYPE":0,"CLASSIFICATION_TYPE":"U","NORAD_CAT_ID":29055,"ELEMENT_SET_NO":999,"REV_AT_EPOCH":4495,"BSTAR":0,"MEAN_MOTION_DOT":1.18e-6,"MEAN_MOTION_DDOT":0},{"OBJECT_NAME":"GALAXY 16 (G-16)","OBJECT_ID":"2006-023A","EPOCH":"2026-04-04T04:26:38.550624","MEAN_MOTION":1.00272619,"ECCENTRICITY":0.00028356,"INCLINATION":0.0179,"RA_OF_ASC_NODE":209.7815,"ARG_OF_PERICENTER":170.4988,"MEAN_ANOMALY":139.874,"EPHEMERIS_TYPE":0,"CLASSIFICATION_TYPE":"U","NORAD_CAT_ID":29236,"ELEMENT_SET_NO":999,"REV_AT_EPOCH":7223,"BSTAR":0,"MEAN_MOTION_DOT":-1.28e-6,"MEAN_MOTION_DDOT":0},{"OBJECT_NAME":"EUTELSAT 33F","OBJECT_ID":"2006-032A","EPOCH":"2026-04-04T04:31:38.667936","MEAN_MOTION":1.00270806,"ECCENTRICITY":0.00035828,"INCLINATION":1.4706,"RA_OF_ASC_NODE":83.0468,"ARG_OF_PERICENTER":291.9865,"MEAN_ANOMALY":278.47,"EPHEMERIS_TYPE":0,"CLASSIFICATION_TYPE":"U","NORAD_CAT_ID":29270,"ELEMENT_SET_NO":999,"REV_AT_EPOCH":4656,"BSTAR":0,"MEAN_MOTION_DOT":1.56e-6,"MEAN_MOTION_DDOT":0},{"OBJECT_NAME":"JCSAT-3A","OBJECT_ID":"2006-033A","EPOCH":"2026-04-04T06:08:38.620320","MEAN_MOTION":1.00268972,"ECCENTRICITY":0.00027738,"INCLINATION":0.0156,"RA_OF_ASC_NODE":220.8543,"ARG_OF_PERICENTER":183.1766,"MEAN_ANOMALY":8.7062,"EPHEMERIS_TYPE":0,"CLASSIFICATION_TYPE":"U","NORAD_CAT_ID":29272,"ELEMENT_SET_NO":999,"REV_AT_EPOCH":4699,"BSTAR":0,"MEAN_MOTION_DOT":0,"MEAN_MOTION_DDOT":0},{"OBJECT_NAME":"KOREASAT 5 (MUGUNGWHA 5)","OBJECT_ID":"2006-034A","EPOCH":"2026-04-03T23:38:02.605632","MEAN_MOTION":1.00272739,"ECCENTRICITY":0.00017072,"INCLINATION":1.5935,"RA_OF_ASC_NODE":83.8912,"ARG_OF_PERICENTER":318.4261,"MEAN_ANOMALY":257.5611,"EPHEMERIS_TYPE":0,"CLASSIFICATION_TYPE":"U","NORAD_CAT_ID":29349,"ELEMENT_SET_NO":999,"REV_AT_EPOCH":4057,"BSTAR":0,"MEAN_MOTION_DOT":-3.58e-6,"MEAN_MOTION_DDOT":0},{"OBJECT_NAME":"ZHONGXING-22A","OBJECT_ID":"2006-038A","EPOCH":"2026-04-04T12:07:24.452832","MEAN_MOTION":1.00078653,"ECCENTRICITY":6.07e-5,"INCLINATION":11.3623,"RA_OF_ASC_NODE":37.9619,"ARG_OF_PERICENTER":338.3372,"MEAN_ANOMALY":219.2459,"EPHEMERIS_TYPE":0,"CLASSIFICATION_TYPE":"U","NORAD_CAT_ID":29398,"ELEMENT_SET_NO":999,"REV_AT_EPOCH":7164,"BSTAR":0,"MEAN_MOTION_DOT":1.0e-6,"MEAN_MOTION_DDOT":0},{"OBJECT_NAME":"DIRECTV 9S","OBJECT_ID":"2006-043A","EPOCH":"2026-04-04T06:34:20.625312","MEAN_MOTION":1.00272053,"ECCENTRICITY":0.00038123,"INCLINATION":2.2303,"RA_OF_ASC_NODE":81.7758,"ARG_OF_PERICENTER":309.1608,"MEAN_ANOMALY":159.0438,"EPHEMERIS_TYPE":0,"CLASSIFICATION_TYPE":"U","NORAD_CAT_ID":29494,"ELEMENT_SET_NO":999,"REV_AT_EPOCH":5064,"BSTAR":0,"MEAN_MOTION_DOT":-1.13e-6,"MEAN_MOTION_DDOT":0},{"OBJECT_NAME":"OPTUS D1","OBJECT_ID":"2006-043B","EPOCH":"2026-04-04T05:22:39.957312","MEAN_MOTION":1.00271554,"ECCENTRICITY":0.00040422,"INCLINATION":2.8446,"RA_OF_ASC_NODE":80.5477,"ARG_OF_PERICENTER":298.5467,"MEAN_ANOMALY":46.0959,"EPHEMERIS_TYPE":0,"CLASSIFICATION_TYPE":"U","NORAD_CAT_ID":29495,"ELEMENT_SET_NO":999,"REV_AT_EPOCH":7137,"BSTAR":0,"MEAN_MOTION_DOT":-1.83e-6,"MEAN_MOTION_DDOT":0},{"OBJECT_NAME":"BADR-4","OBJECT_ID":"2006-051A","EPOCH":"2026-04-04T04:39:38.850624","MEAN_MOTION":1.00273679,"ECCENTRICITY":0.00069917,"INCLINATION":1.8143,"RA_OF_ASC_NODE":81.898,"ARG_OF_PERICENTER":285.4348,"MEAN_ANOMALY":281.3283,"EPHEMERIS_TYPE":0,"CLASSIFICATION_TYPE":"U","NORAD_CAT_ID":29526,"ELEMENT_SET_NO":999,"REV_AT_EPOCH":5052,"BSTAR":0,"MEAN_MOTION_DOT":1.45e-6,"MEAN_MOTION_DDOT":0},{"OBJECT_NAME":"WILDBLUE-1","OBJECT_ID":"2006-054A","EPOCH":"2026-04-04T05:24:44.351712","MEAN_MOTION":1.00272097,"ECCENTRICITY":0.00017082,"INCLINATION":2.6126,"RA_OF_ASC_NODE":81.3989,"ARG_OF_PERICENTER":293.0222,"MEAN_ANOMALY":148.1121,"EPHEMERIS_TYPE":0,"CLASSIFICATION_TYPE":"U","NORAD_CAT_ID":29643,"ELEMENT_SET_NO":999,"REV_AT_EPOCH":5305,"BSTAR":0,"MEAN_MOTION_DOT":-4.8e-7,"MEAN_MOTION_DDOT":0},{"OBJECT_NAME":"MEASAT-3","OBJECT_ID":"2006-056A","EPOCH":"2026-04-04T05:46:51.648384","MEAN_MOTION":0.99748819,"ECCENTRICITY":0.00049118,"INCLINATION":4.5394,"RA_OF_ASC_NODE":77.0547,"ARG_OF_PERICENTER":240.7934,"MEAN_ANOMALY":85.1445,"EPHEMERIS_TYPE":0,"CLASSIFICATION_TYPE":"U","NORAD_CAT_ID":29648,"ELEMENT_SET_NO":999,"REV_AT_EPOCH":4964,"BSTAR":0,"MEAN_MOTION_DOT":-3.35e-6,"MEAN_MOTION_DDOT":0},{"OBJECT_NAME":"SKYNET 5A","OBJECT_ID":"2007-007B","EPOCH":"2026-04-03T23:32:55.597056","MEAN_MOTION":1.00271516,"ECCENTRICITY":0.00039706,"INCLINATION":5.1128,"RA_OF_ASC_NODE":74.6254,"ARG_OF_PERICENTER":309.7461,"MEAN_ANOMALY":256.3864,"EPHEMERIS_TYPE":0,"CLASSIFICATION_TYPE":"U","NORAD_CAT_ID":30794,"ELEMENT_SET_NO":999,"REV_AT_EPOCH":6995,"BSTAR":0,"MEAN_MOTION_DOT":-2.7e-6,"MEAN_MOTION_DDOT":0},{"OBJECT_NAME":"ANIK F3","OBJECT_ID":"2007-009A","EPOCH":"2026-04-03T15:15:43.442208","MEAN_MOTION":1.00273651,"ECCENTRICITY":0.0002888,"INCLINATION":1.005,"RA_OF_ASC_NODE":84.7089,"ARG_OF_PERICENTER":297.9476,"MEAN_ANOMALY":279.5351,"EPHEMERIS_TYPE":0,"CLASSIFICATION_TYPE":"U","NORAD_CAT_ID":31102,"ELEMENT_SET_NO":999,"REV_AT_EPOCH":4581,"BSTAR":0,"MEAN_MOTION_DOT":-3.0e-8,"MEAN_MOTION_DDOT":0},{"OBJECT_NAME":"ASTRA 1L","OBJECT_ID":"2007-016A","EPOCH":"2026-04-04T05:11:38.889312","MEAN_MOTION":1.00272871,"ECCENTRICITY":0.00043665,"INCLINATION":1.1308,"RA_OF_ASC_NODE":82.0893,"ARG_OF_PERICENTER":310.2435,"MEAN_ANOMALY":213.5892,"EPHEMERIS_TYPE":0,"CLASSIFICATION_TYPE":"U","NORAD_CAT_ID":31306,"ELEMENT_SET_NO":999,"REV_AT_EPOCH":4424,"BSTAR":0,"MEAN_MOTION_DOT":-1.84e-6,"MEAN_MOTION_DDOT":0},{"OBJECT_NAME":"GALAXY 17 (G-17)","OBJECT_ID":"2007-016B","EPOCH":"2026-04-04T05:32:13.634304","MEAN_MOTION":1.00271754,"ECCENTRICITY":0.00040555,"INCLINATION":2.7853,"RA_OF_ASC_NODE":80.8115,"ARG_OF_PERICENTER":307.0162,"MEAN_ANOMALY":162.7732,"EPHEMERIS_TYPE":0,"CLASSIFICATION_TYPE":"U","NORAD_CAT_ID":31307,"ELEMENT_SET_NO":999,"REV_AT_EPOCH":6906,"BSTAR":0,"MEAN_MOTION_DOT":-2.05e-6,"MEAN_MOTION_DDOT":0},{"OBJECT_NAME":"NIGCOMSAT 1","OBJECT_ID":"2007-018A","EPOCH":"2026-04-03T18:26:02.893920","MEAN_MOTION":1.00223173,"ECCENTRICITY":0.00022931,"INCLINATION":11.746,"RA_OF_ASC_NODE":33.451,"ARG_OF_PERICENTER":104.1729,"MEAN_ANOMALY":70.1335,"EPHEMERIS_TYPE":0,"CLASSIFICATION_TYPE":"U","NORAD_CAT_ID":31395,"ELEMENT_SET_NO":999,"REV_AT_EPOCH":6931,"BSTAR":0,"MEAN_MOTION_DOT":-3.0e-6,"MEAN_MOTION_DDOT":0},{"OBJECT_NAME":"WGS F1 (USA 195)","OBJECT_ID":"2007-046A","EPOCH":"2026-04-04T05:27:38.799360","MEAN_MOTION":1.00271708,"ECCENTRICITY":4.151e-5,"INCLINATION":0.0756,"RA_OF_ASC_NODE":83.0235,"ARG_OF_PERICENTER":293.117,"MEAN_ANOMALY":215.8177,"EPHEMERIS_TYPE":0,"CLASSIFICATION_TYPE":"U","NORAD_CAT_ID":32258,"ELEMENT_SET_NO":999,"REV_AT_EPOCH":5159,"BSTAR":0,"MEAN_MOTION_DOT":-2.68e-6,"MEAN_MOTION_DDOT":0}]
